IRIDIUM 116             
1 43072U 17083C   25043.85860179  .00000061  00000+0  14575-4 0  9995
2 43072  86.4032 166.5396 0002055  91.2559 268.8872 14.34217465374035
IRIDIUM 130             
1 43073U 17083D   25043.82688772  .00000276  00000+0  91659-4 0  9996
2 43073  86.4042 166.7800 0002280  93.3497 266.7960 14.34218741373978
IRIDIUM 151             
1 43074U 17083E   25043.80151716  .00000141  00000+0  43423-4 0  9995
2 43074  86.4036 166.6101 0001933  92.6323 267.5095 14.34218503373995
IRIDIUM 134             
1 43075U 17083F   25043.83956821  .00000449  00000+0  15331-3 0  9996
2 43075  86.4034 166.5955 0002329  93.7102 266.4360 14.34221773373960
IRIDIUM 137             
1 43076U 17083G   25043.85225721  .00000545  00000+0  18748-3 0  9999
2 43076  86.4034 166.6725 0001980  72.6885 287.4528 14.34215533374038
IRIDIUM 141             
1 43077U 17083H   25043.84591382  .00000346  00000+0  11635-3 0  9995
2 43077  86.4032 166.5343 0002073 107.6543 252.4879 14.34219986374033
IRIDIUM 153             
1 43078U 17083J   25043.79808634  .00000524  00000+0  18001-3 0  9993
2 43078  86.4005 135.0786 0002112 112.4962 247.6457 14.34214834375136
IRIDIUM 131             
1 43079U 17083K   25043.83322939  .00000497  00000+0  17050-3 0  9990
2 43079  86.4036 166.6926 0001859  99.7199 260.4206 14.34219217373967
